COSMOS 2576             
1 59773U 24092A   26068.82603826  .00015211  00000+0  56283-3 0  9991
2 59773  97.4253 186.0053 0005946 159.7731 200.3745 15.27760963101271
STARLINK-36117          
1 66865U 25281T   26068.19492460  .00025471  00000+0  93134-3 0  9997
2 66865  43.0016 345.9355 0001709 245.5337 114.5336 15.27600059 16114
